{"fetched_at":"2026-07-17T06:38:43.132Z","source":"https://celestrak.org/NORAD/elements/gp.php?NAME=UMBRA&FORMAT=JSON","constellation":"umbra","records":[{"OBJECT_NAME":"UMBRA-07","OBJECT_ID":"2023-174AT","EPOCH":"2026-07-16T16:08:24.974592","CLASSIFICATION_TYPE":"U","MEAN_MOTION":15.09635395,"ECCENTRICITY":0.0002149,"INCLINATION":97.3776,"RA_OF_ASC_NODE":252.326,"ARG_OF_PERICENTER":16.4448,"MEAN_ANOMALY":343.6851,"EPHEMERIS_TYPE":0,"NORAD_CAT_ID":58297,"ELEMENT_SET_NO":999,"REV_AT_EPOCH":14786,"BSTAR":0.00029912,"MEAN_MOTION_DOT":0.00004751,"MEAN_MOTION_DDOT":0},{"OBJECT_NAME":"UMBRA-09","OBJECT_ID":"2024-149CB","EPOCH":"2026-07-16T15:43:31.225728","CLASSIFICATION_TYPE":"U","MEAN_MOTION":15.18876443,"ECCENTRICITY":0.0002071,"INCLINATION":97.6973,"RA_OF_ASC_NODE":285.3829,"ARG_OF_PERICENTER":198.7933,"MEAN_ANOMALY":161.3225,"EPHEMERIS_TYPE":0,"NORAD_CAT_ID":60541,"ELEMENT_SET_NO":999,"REV_AT_EPOCH":10519,"BSTAR":0.00042782,"MEAN_MOTION_DOT":0.00008854,"MEAN_MOTION_DDOT":0},{"OBJECT_NAME":"UMBRA-10","OBJECT_ID":"2024-149CH","EPOCH":"2026-07-16T15:42:51.899904","CLASSIFICATION_TYPE":"U","MEAN_MOTION":15.18876664,"ECCENTRICITY":0.0001728,"INCLINATION":97.6978,"RA_OF_ASC_NODE":285.4123,"ARG_OF_PERICENTER":164.0739,"MEAN_ANOMALY":196.055,"EPHEMERIS_TYPE":0,"NORAD_CAT_ID":60547,"ELEMENT_SET_NO":999,"REV_AT_EPOCH":10520,"BSTAR":0.00044679,"MEAN_MOTION_DOT":0.0000925,"MEAN_MOTION_DDOT":0},{"OBJECT_NAME":"UMBRA-11","OBJECT_ID":"2025-276CL","EPOCH":"2026-07-16T20:53:21.912000","CLASSIFICATION_TYPE":"U","MEAN_MOTION":15.27821127,"ECCENTRICITY":0.0002838,"INCLINATION":97.4187,"RA_OF_ASC_NODE":272.3387,"ARG_OF_PERICENTER":180.8532,"MEAN_ANOMALY":179.2703,"EPHEMERIS_TYPE":0,"NORAD_CAT_ID":66748,"ELEMENT_SET_NO":999,"REV_AT_EPOCH":3502,"BSTAR":0.00044728,"MEAN_MOTION_DOT":0.00012086,"MEAN_MOTION_DDOT":0},{"OBJECT_NAME":"UMBRA-12","OBJECT_ID":"2026-004J","EPOCH":"2026-07-16T12:46:39.849888","CLASSIFICATION_TYPE":"U","MEAN_MOTION":14.89538275,"ECCENTRICITY":0.000733,"INCLINATION":97.8023,"RA_OF_ASC_NODE":195.9005,"ARG_OF_PERICENTER":49.347,"MEAN_ANOMALY":310.8384,"EPHEMERIS_TYPE":0,"NORAD_CAT_ID":67371,"ELEMENT_SET_NO":999,"REV_AT_EPOCH":2767,"BSTAR":0.00025185,"MEAN_MOTION_DOT":0.00002347,"MEAN_MOTION_DDOT":0}]}
