UMBRA-07                
1 58297U 23174AT  26197.67251128  .00004751  00000+0  29912-3 0  9997
2 58297  97.3776 252.3260 0002149  16.4448 343.6851 15.09635395147867
UMBRA-09                
1 60541U 24149CB  26197.65522252  .00008854  00000+0  42782-3 0  9990
2 60541  97.6973 285.3829 0002071 198.7933 161.3225 15.18876443105199
UMBRA-10                
1 60547U 24149CH  26197.65476736  .00009250  00000+0  44679-3 0  9999
2 60547  97.6978 285.4123 0001728 164.0739 196.0550 15.18876664105209
UMBRA-11                
1 66748U 25276CL  26197.87039250  .00012086  00000+0  44728-3 0  9996
2 66748  97.4187 272.3387 0002838 180.8532 179.2703 15.27821127 35024
UMBRA-12                
1 67371U 26004J   26197.53240567  .00002347  00000+0  25185-3 0  9992
2 67371  97.8023 195.9005 0007330  49.3470 310.8384 14.89538275 27675
